ORBCOMM FM05            
1 25117U 97084F   25300.43979524  .00002829  00000+0  81898-3 0  9994
2 25117  45.0134  92.8523 0003316 168.2569 191.8361 14.46441749459757
ORBCOMM FM06            
1 25118U 97084G   25300.49999132  .00002608  00000+0  75579-3 0  9992
2 25118  45.0127  92.1461 0002251 170.8709 253.1822 14.46597028460686
ORBCOMM FM07            
1 25119U 97084H   25300.50057125  .00002438  00000+0  70884-3 0  9997
2 25119  45.0121  92.9004 0004139 164.8984 195.1992 14.46614394460675
ORBCOMM FM03            
1 25158U 98007B   25300.25790494  .00001472  00000+0  55823-3 0  9994
2 25158 107.9633  46.9557 0043507  15.1142 345.1287 14.34842085442987
ORBCOMM FM04            
1 25159U 98007C   25300.21954985  .00001520  00000+0  57336-3 0  9993
2 25159 107.9624  50.1860 0039380  12.1734 348.0350 14.35085848443161
ORBCOMM FM17            
1 25413U 98046A   25300.51563564  .00001347  00000+0  51383-3 0  9994
2 25413  44.9957 352.9616 0003486 197.0214 163.0516 14.35388924422188
ORBCOMM FM18            
1 25414U 98046B   25300.28385544  .00001914  00000+0  66042-3 0  9997
2 25414  44.9923 267.8810 0005652 251.1519 108.8717 14.38955163423278
ORBCOMM FM19            
1 25415U 98046C   25300.34657176  .00002054  00000+0  70813-3 0  9995
2 25415  44.9934 269.7865 0004434 253.0408 258.0724 14.38770878423237
